STARLINK-5729           
1 55596U 23020AD  24189.81894934  .00000098  00000+0  22356-4 0  9995
2 55596  43.0041  78.1055 0001092 271.2965  88.7752 15.02531244 77181
STARLINK-5743           
1 55597U 23020AE  24189.01382489  .00002964  00000+0  23441-3 0  9994
2 55597  43.0049  70.2838 0001117 262.2516  97.8200 15.02531550 77204
STARLINK-5756           
1 55598U 23020AF  24189.35619561  .00001669  00000+0  13857-3 0  9997
2 55598  43.0039  68.5179 0001468 269.4409  90.6265 15.02537455 77258
STARLINK-5761           
1 55599U 23020AG  24190.01764583 -.00001307  00000+0 -81710-4 0  9993
2 55599  43.0047  64.8800 0001294 272.2543  87.8151 15.02542250 77347
STARLINK-5755           
1 55600U 23020AH  24189.07475167 -.00000557  00000+0 -26186-4 0  9999
2 55600  43.0039  69.8624 0001247 279.3176  80.7526 15.02538892 77219
STARLINK-5744           
1 55601U 23020AJ  24190.01505861  .00004669  00000+0  36057-3 0  9994
2 55601  43.0040  76.9943 0001199 262.5337  97.5370 15.02527975 77217
STARLINK-5764           
1 55602U 23020AK  24190.01542573 -.00001888  00000+0 -12471-3 0  9992
2 55602  43.0044  64.8618 0001262 267.6803  92.3894 15.02541416 77357
STARLINK-5735           
1 55603U 23020AL  24189.01160104  .00000094  00000+0  22040-4 0  9997
2 55603  43.0034  70.2520 0001328 273.5547  86.5143 15.02535894 77203
STARLINK-5748           
1 55604U 23020AM  24189.31316974  .00000131  00000+0  24781-4 0  9995
2 55604  43.0045  55.2065 0001270 279.3275  80.7423 15.02537947 77401
STARLINK-5725           
1 55605U 23020AN  24189.80490077 -.00000021  00000+0  13529-4 0  9994
2 55605  43.0043  65.8807 0001159 266.9104  93.1606 15.02530233 77323
STARLINK-5700           
1 55607U 23020AQ  24189.06699051  .00005241  00000+0  40268-3 0  9994
2 55607  43.0032  69.8074 0001521 277.8694  82.1976 15.02543361 77213
STARLINK-5726           
1 55608U 23020AR  24189.39714823  .00001387  00000+0  11769-3 0  9997
2 55608  43.0057  67.9849 0001363 267.9062  92.1624 15.02537755 77269
STARLINK-5719           
1 55609U 23020AS  24190.06747762  .00000347  00000+0  40726-4 0  9993
2 55609  43.0042  64.4123 0001365 267.0246  93.0440 15.02535960 77361
STARLINK-5722           
1 55610U 23020AT  24189.78823190  .00008607  00000+0  65105-3 0  9996
2 55610  43.0039  65.7584 0001480 265.5282  94.5391 15.02560357 77320
STARLINK-5730           
1 55611U 23020AU  24189.71955103  .00001224  00000+0  10567-3 0  9990
2 55611  43.0032  66.1033 0000956 267.3082  92.7651 15.02533470 77317
STARLINK-5734           
1 55612U 23020AV  24189.85139473  .00001358  00000+0  11556-3 0  9997
2 55612  43.0052  65.3711 0001351 266.6172  93.4515 15.02532209 77334
STARLINK-5715           
1 55613U 23020AW  24189.39382331  .00000245  00000+0  33234-4 0  9992
2 55613  43.0081  67.9613 0001182 260.0458 100.0252 15.02531352 77266
STARLINK-5714           
1 55614U 23020AX  24189.32426057  .00000661  00000+0  63986-4 0  9999
2 55614  43.0051  55.2531 0001390 263.1940  96.8744 15.02537599 77407
STARLINK-5712           
1 55615U 23020AY  24189.71510641  .00000931  00000+0  83956-4 0  9995
2 55615  43.0059  66.0691 0001283 270.8167  89.2529 15.02537140 77319
STARLINK-5710           
1 55616U 23020AZ  24189.70622948 -.00000325  00000+0 -89548-5 0  9992
2 55616  43.0048  66.0025 0001208 274.2480  85.8224 15.02541299 77316
STARLINK-5721           
1 55617U 23020BA  24189.37939064  .00000113  00000+0  23461-4 0  9990
2 55617  43.0041  67.8511 0001291 272.5114  87.5581 15.02537820 77260
STARLINK-5717           
1 55618U 23020BB  24189.83808547 -.00000655  00000+0 -33405-4 0  9995
2 55618  43.0031  65.2720 0001334 284.0405  76.0289 15.02524377 77332
STARLINK-5720           
1 55619U 23020BC  24189.83474217  .00000734  00000+0  69413-4 0  9993
2 55619  43.0047  65.2473 0001110 275.8650  84.2066 15.02540874 77331
STARLINK-5718           
1 55620U 23020BD  24189.36607491  .00001462  00000+0  12332-3 0  9991
2 55620  43.0035  67.7522 0001274 271.0943  88.9754 15.02530208 77263
STARLINK-5709           
1 55621U 23020BE  24189.37716913  .00001588  00000+0  13261-3 0  9994
2 55621  43.0046  67.8352 0001241 271.0606  89.0094 15.02538819 77263
STARLINK-5702           
1 55622U 23020BF  24189.82920163 -.00000177  00000+0  19577-5 0  9991
2 55622  43.0043  65.2086 0001489 267.6010  92.4661 15.02533834 77339
STARLINK-5698           
1 55623U 23020BG  24190.02419365  .00001657  00000+0  13773-3 0  9996
2 55623  43.0040  64.0890 0001068 277.0350  83.0371 15.02529712 77369
STARLINK-5484           
1 55628U 23021A   24189.75419225  .00000884  00000+0  81835-4 0  9991
2 55628  70.0003 302.4072 0003048 267.4082  92.6728 14.98336118 76630
STARLINK-5497           
1 55629U 23021B   24189.75836806  .00000804  00000+0  75171-4 0  9998
2 55629  70.0006 302.4232 0003023 270.2703  89.8110 14.98334961 76634
STARLINK-5303           
1 55630U 23021C   24189.75001884  .00000590  00000+0  57209-4 0  9994
2 55630  70.0007 302.3923 0002862 269.1175  90.9656 14.98335419 76630
