OBJECT_NAME,OBJECT_ID,EPOCH,MEAN_MOTION,ECCENTRICITY,INCLINATION,RA_OF_ASC_NODE,ARG_OF_PERICENTER,MEAN_ANOMALY,EPHEMERIS_TYPE,CLASSIFICATION_TYPE,NORAD_CAT_ID,ELEMENT_SET_NO,REV_AT_EPOCH,BSTAR,MEAN_MOTION_DOT,MEAN_MOTION_DDOT
STARLINK-5729,2023-020AD,2024-07-07T19:39:17.222976,15.02531244,.0001092,43.0041,78.1055,271.2965,88.7752,0,U,55596,999,7718,.22356E-4,.98E-6,0
STARLINK-5743,2023-020AE,2024-07-07T00:19:54.470496,15.02531550,.0001117,43.0049,70.2838,262.2516,97.8200,0,U,55597,999,7720,.23441E-3,.2964E-4,0
STARLINK-5756,2023-020AF,2024-07-07T08:32:55.300704,15.02537455,.0001468,43.0039,68.5179,269.4409,90.6265,0,U,55598,999,7725,.13857E-3,.1669E-4,0
STARLINK-5761,2023-020AG,2024-07-08T00:25:24.599712,15.02542250,.0001294,43.0047,64.8800,272.2543,87.8151,0,U,55599,999,7734,-.8171E-4,-.1307E-4,0
STARLINK-5755,2023-020AH,2024-07-07T01:47:38.544288,15.02538892,.0001247,43.0039,69.8624,279.3176,80.7526,0,U,55600,999,7721,-.26186E-4,-.557E-5,0
STARLINK-5744,2023-020AJ,2024-07-08T00:21:41.063904,15.02527975,.0001199,43.0040,76.9943,262.5337,97.5370,0,U,55601,999,7721,.36057E-3,.4669E-4,0
STARLINK-5764,2023-020AK,2024-07-08T00:22:12.783072,15.02541416,.0001262,43.0044,64.8618,267.6803,92.3894,0,U,55602,999,7735,-.12471E-3,-.1888E-4,0
STARLINK-5735,2023-020AL,2024-07-07T00:16:42.329856,15.02535894,.0001328,43.0034,70.2520,273.5547,86.5143,0,U,55603,999,7720,.2204E-4,.94E-6,0
STARLINK-5748,2023-020AM,2024-07-07T07:30:57.865536,15.02537947,.000127,43.0045,55.2065,279.3275,80.7423,0,U,55604,999,7740,.24781E-4,.131E-5,0
STARLINK-5725,2023-020AN,2024-07-07T19:19:03.426528,15.02530233,.0001159,43.0043,65.8807,266.9104,93.1606,0,U,55605,999,7732,.13529E-4,-.21E-6,0
STARLINK-5700,2023-020AQ,2024-07-07T01:36:27.980064,15.02543361,.0001521,43.0032,69.8074,277.8694,82.1976,0,U,55607,999,7721,.40268E-3,.5241E-4,0
STARLINK-5726,2023-020AR,2024-07-07T09:31:53.607072,15.02537755,.0001363,43.0057,67.9849,267.9062,92.1624,0,U,55608,999,7726,.11769E-3,.1387E-4,0
STARLINK-5719,2023-020AS,2024-07-08T01:37:10.066368,15.02535960,.0001365,43.0042,64.4123,267.0246,93.0440,0,U,55609,999,7736,.40726E-4,.347E-5,0
STARLINK-5722,2023-020AT,2024-07-07T18:55:03.236160,15.02560357,.000148,43.0039,65.7584,265.5282,94.5391,0,U,55610,999,7732,.65105E-3,.8607E-4,0
STARLINK-5730,2023-020AU,2024-07-07T17:16:09.208992,15.02533470,.0000956,43.0032,66.1033,267.3082,92.7651,0,U,55611,999,7731,.10567E-3,.1224E-4,0
STARLINK-5734,2023-020AV,2024-07-07T20:26:00.504672,15.02532209,.0001351,43.0052,65.3711,266.6172,93.4515,0,U,55612,999,7733,.11556E-3,.1358E-4,0
STARLINK-5715,2023-020AW,2024-07-07T09:27:06.333984,15.02531352,.0001182,43.0081,67.9613,260.0458,100.0252,0,U,55613,999,7726,.33234E-4,.245E-5,0
STARLINK-5714,2023-020AX,2024-07-07T07:46:56.113248,15.02537599,.000139,43.0051,55.2531,263.1940,96.8744,0,U,55614,999,7740,.63986E-4,.661E-5,0
STARLINK-5712,2023-020AY,2024-07-07T17:09:45.193824,15.02537140,.0001283,43.0059,66.0691,270.8167,89.2529,0,U,55615,999,7731,.83956E-4,.931E-5,0
STARLINK-5710,2023-020AZ,2024-07-07T16:56:58.227072,15.02541299,.0001208,43.0048,66.0025,274.2480,85.8224,0,U,55616,999,7731,-.89548E-5,-.325E-5,0
STARLINK-5721,2023-020BA,2024-07-07T09:06:19.351296,15.02537820,.0001291,43.0041,67.8511,272.5114,87.5581,0,U,55617,999,7726,.23461E-4,.113E-5,0
STARLINK-5717,2023-020BB,2024-07-07T20:06:50.584608,15.02524377,.0001334,43.0031,65.2720,284.0405,76.0289,0,U,55618,999,7733,-.33405E-4,-.655E-5,0
STARLINK-5720,2023-020BC,2024-07-07T20:02:01.723488,15.02540874,.000111,43.0047,65.2473,275.8650,84.2066,0,U,55619,999,7733,.69413E-4,.734E-5,0
STARLINK-5718,2023-020BD,2024-07-07T08:47:08.872224,15.02530208,.0001274,43.0035,67.7522,271.0943,88.9754,0,U,55620,999,7726,.12332E-3,.1462E-4,0
STARLINK-5709,2023-020BE,2024-07-07T09:03:07.412832,15.02538819,.0001241,43.0046,67.8352,271.0606,89.0094,0,U,55621,999,7726,.13261E-3,.1588E-4,0
STARLINK-5702,2023-020BF,2024-07-07T19:54:03.020832,15.02533834,.0001489,43.0043,65.2086,267.6010,92.4661,0,U,55622,999,7733,.19577E-5,-.177E-5,0
STARLINK-5698,2023-020BG,2024-07-08T00:34:50.331360,15.02529712,.0001068,43.0040,64.0890,277.0350,83.0371,0,U,55623,999,7736,.13773E-3,.1657E-4,0
STARLINK-5484,2023-021A,2024-07-07T18:06:02.210400,14.98336118,.0003048,70.0003,302.4072,267.4082,92.6728,0,U,55628,999,7663,.81835E-4,.884E-5,0
STARLINK-5497,2023-021B,2024-07-07T18:12:03.000384,14.98334961,.0003023,70.0006,302.4232,270.2703,89.8110,0,U,55629,999,7663,.75171E-4,.804E-5,0
STARLINK-5303,2023-021C,2024-07-07T18:00:01.627776,14.98335419,.0002862,70.0007,302.3923,269.1175,90.9656,0,U,55630,999,7663,.57209E-4,.59E-5,0
